sat19337
1 19337U 88064B   20046.91028906  .00000105  00000-0  23951-3 0  9995
2 19337  82.5497 170.8422 0014581 261.7926 236.4325 13.17228352517187
